{"fetched_at":"2026-03-30T13:17:50Z","count":15418,"tles":[{"name":"STARLINK-30123","line1":"1 56838U 23079R   26087.56987019  .00001033  00000+0  47019-4 0  9990","line2":"2 56838  43.0032 287.3136 0000695 272.1190  87.9582 15.27594135156638","category":"Starlink"}]}