{
  "norad_id": 56838,
  "name": "STARLINK-30123",
  "history": [
    {
      "epoch": "2026-03-28T13:40:36.784416Z",
      "apogee_km": 483.4836205830725,
      "perigee_km": 482.5299215988907,
      "latitude_deg": -4.220526230856649e-06,
      "longitude_deg": -103.82809838807414,
      "height_km": 482.7655812404215,
      "semi_major_axis_km": 6861.143771090981,
      "eccentricity": 6.95e-05,
      "inclination_deg": 43.0032,
      "raan_deg": 287.3136,
      "arg_perigee_deg": 272.119,
      "mean_anomaly_deg": 87.9582,
      "mean_motion_rev_day": 15.27594135
    }
  ]
}